[{"OBJECT_NAME":"STARLINK-5507","OBJECT_ID":"2023-021L","EPOCH":"2026-03-09T17:15:36.504000","MEAN_MOTION":14.98330813,"ECCENTRICITY":0.00031505,"INCLINATION":70.0004,"RA_OF_ASC_NODE":204.3366,"ARG_OF_PERICENTER":268.0006,"MEAN_ANOMALY":92.0792,"EPHEMERIS_TYPE":0,"CLASSIFICATION_TYPE":"U","NORAD_CAT_ID":55638,"ELEMENT_SET_NO":999,"REV_AT_EPOCH":16830,"BSTAR":9.023888e-6,"MEAN_MOTION_DOT":1.5e-7,"MEAN_MOTION_DDOT":0},{"OBJECT_NAME":"SITRO-AIS 16","OBJECT_ID":"2024-199C","EPOCH":"2026-03-09T22:02:52.039104","MEAN_MOTION":14.97049887,"ECCENTRICITY":0.00080733,"INCLINATION":97.3322,"RA_OF_ASC_NODE":274.4213,"ARG_OF_PERICENTER":52.0818,"MEAN_ANOMALY":308.1134,"EPHEMERIS_TYPE":0,"CLASSIFICATION_TYPE":"U","NORAD_CAT_ID":61737,"ELEMENT_SET_NO":999,"REV_AT_EPOCH":11696,"BSTAR":0.00041232113,"MEAN_MOTION_DOT":4.701e-5,"MEAN_MOTION_DDOT":0}]
